COSMOS 2425 (716)       
1 29670U 06062A   21050.49019463  .00000074  00000-0  00000+0 0  9992
2 29670  64.8767 259.4348 0024694 349.6783  18.6185  2.13113808110158
COSMOS 2433 (720)       
1 32275U 07052A   21050.49681483 -.00000044  00000-0  00000-0 0  9993
2 32275  66.0430  20.7031 0005022 268.5690 283.6738  2.13104129103675
COSMOS 2432 (719)       
1 32276U 07052B   21050.45935544 -.00000044  00000-0  00000-0 0  9990
2 32276  66.0548  20.7970 0012231 321.3121 151.7478  2.13103470103679
COSMOS 2434 (721)       
1 32393U 07065A   21050.86102755  .00000080  00000-0  00000+0 0  9997
2 32393  64.4889 257.9355 0004799  76.3490 283.3669  2.13103015102382
COSMOS 2436 (723)       
1 32395U 07065C   21050.50416793  .00000076  00000-0  00000-0 0  9996
2 32395  64.5027 258.0004 0016197   6.8487 215.2368  2.13102851102311
COSMOS 2456 (730)       
1 36111U 09070A   21051.19447403 -.00000017  00000-0  00000+0 0  9997
2 36111  64.2579 137.6033 0003513 315.4862 112.1411  2.13099084 87069
COSMOS 2457 (733)       
1 36112U 09070B   21050.54178435 -.00000016  00000-0  00000+0 0  9991
2 36112  64.2407 137.5133 0005459 166.9818 243.3700  2.13101341 87058
COSMOS 2459 (731)       
1 36400U 10007A   21050.59102086 -.00000045  00000-0  00000+0 0  9999
2 36400  65.9415  19.6391 0026636 344.9086 135.8167  2.13104981 85396
COSMOS 2461 (735)       
1 36401U 10007B   21050.42838052 -.00000046  00000-0  00000-0 0  9993
2 36401  65.9376  19.6085 0020780   0.2235 357.5826  2.13103712 85391
COSMOS 2460 (732)       
1 36402U 10007C   21050.37560503 -.00000046  00000-0  00000-0 0  9991
2 36402  65.9233  19.5699 0002512 295.2243 325.7278  2.13106487 85392
COSMOS 2464 (736)       
1 37139U 10041C   21050.54145161  .00000077  00000-0  00000-0 0  9998
2 37139  64.0922 257.2630 0029087  13.6210 322.7197  2.13100711 81457
COSMOS 2471 (701K)      
1 37372U 11009A   21050.42269773 -.00000046  00000-0  00000-0 0  9992
2 37372  65.9215  19.5076 0009929 237.3524 223.3477  2.13107252 77673
COSMOS 2476 (744)       
1 37867U 11064A   21050.45313322 -.00000015  00000-0  00000-0 0  9991
2 37867  64.5536 138.7954 0020302 236.1380 244.0972  2.13101833 72390
COSMOS 2477 (745)       
1 37868U 11064B   21050.43600402 -.00000015  00000-0  00000-0 0  9998
2 37868  64.5630 138.8550 0017816 236.9700  48.5059  2.13101619 72349
COSMOS 2475 (743)       
1 37869U 11064C   21050.20684183 -.00000014  00000-0  00000-0 0  9991
2 37869  64.5696 138.8668 0021593 257.7860 169.4821  2.13101742 72355
COSMOS 2485 (747)       
1 39155U 13019A   21050.21906042 -.00000014  00000-0  00000-0 0  9995
2 39155  64.7209 139.1262 0020823 231.6769 113.4892  2.13101771 60856
COSMOS 2492 (754)       
1 39620U 14012A   21050.43107898 -.00000047  00000-0  00000-0 0  9998
2 39620  65.8129  19.3174 0015450 319.5205 223.2101  2.13103152 53814
COSMOS 2500 (755)       
1 40001U 14032A   21051.19129123 -.00000045  00000-0  00000+0 0  9991
2 40001  65.7537  19.1883 0006844 226.4182  39.4297  2.13102450 52040
COSMOS 2501 (702K)      
1 40315U 14075A   21050.40899325  .00000073  00000-0  00000-0 0  9998
2 40315  63.8056 258.1198 0015416 207.3625 344.2394  2.13100855 48432
COSMOS 2514 (751)       
1 41330U 16008A   21050.23809657 -.00000048  00000-0  00000+0 0  9996
2 41330  65.5556  19.0324 0010781 227.7758 209.7389  2.13102868 39190
COSMOS 2516 (753)       
1 41554U 16032A   21050.73193106  .00000077  00000-0  00000+0 0  9992
2 41554  64.0297 258.2474 0011139 214.9378 134.1410  2.13106731 36805
COSMOS 2522 (752)       
1 42939U 17055A   21051.15730291  .00000082  00000-0  00000+0 0  9991
2 42939  64.2657 258.4873 0005180 252.8177 287.8423  2.13101955 26573
COSMOS 2527 (756)       
1 43508U 18053A   21050.30279218 -.00000014  00000-0  00000-0 0  9993
2 43508  64.8855 139.0234 0007602 227.4291  49.6874  2.13102550 20843
COSMOS 2529 (757)       
1 43687U 18086A   21050.53230641  .00000075  00000-0  00000-0 0  9995
2 43687  64.4770 258.6931 0007951 280.9059  95.8335  2.13102037 17872
COSMOS 2534 (758)       
1 44299U 19030A   21050.32157881  .00000073  00000-0  00000-0 0  9994
2 44299  64.5451 258.5424 0011598 300.1022  49.8627  2.13101888 13504
COSMOS 2544 (759)       
1 44850U 19088A   21050.44944826 -.00000015  00000-0  00000-0 0  9993
2 44850  64.8693 138.8810 0011391 261.6966 171.7877  2.13102293  9290
COSMOS 2545 (760)       
1 45358U 20018A   21050.71421981 -.00000047  00000-0  00000+0 0  9998
2 45358  64.8866  20.0219 0010937 259.7759 227.0021  2.13102716  7243
